{
    "links": {
        "self": "http://www.neowsapp.com/rest/v1/neo/3785791?api_key=iIulBulltgU6a56xZRHN4H3l9WmuAYTsLGpBGhQ2"
    },
    "id": "3785791",
    "neo_reference_id": "3785791",
    "name": "(2017 TF5)",
    "designation": "2017 TF5",
    "nasa_jpl_url": "http://ssd.jpl.nasa.gov/sbdb.cgi?sstr=3785791",
    "absolute_magnitude_h": 25.4,
    "estimated_diameter": {
        "kilometers": {
            "estimated_diameter_min": 0.022108281,
            "estimated_diameter_max": 0.0494356193
        },
        "meters": {
            "estimated_diameter_min": 22.1082810359,
            "estimated_diameter_max": 49.435619262
        },
        "miles": {
            "estimated_diameter_min": 0.0137374447,
            "estimated_diameter_max": 0.0307178602
        },
        "feet": {
            "estimated_diameter_min": 72.5337327539,
            "estimated_diameter_max": 162.1903570994
        }
    },
    "is_potentially_hazardous_asteroid": false,
    "close_approach_data": [
        {
            "close_approach_date": "2017-10-10",
            "close_approach_date_full": "2017-Oct-10 07:40",
            "epoch_date_close_approach": 1507621200000,
            "relative_velocity": {
                "kilometers_per_second": "22.8158387523",
                "kilometers_per_hour": "82137.0195082631",
                "miles_per_hour": "51036.7497050094"
            },
            "miss_distance": {
                "astronomical": "0.0018797764",
                "lunar": "0.7312330196",
                "kilometers": "281210.545516268",
                "miles": "174736.1303617784"
            },
            "orbiting_body": "Earth"
        },
        {
            "close_approach_date": "2017-10-10",
            "close_approach_date_full": "2017-Oct-10 09:38",
            "epoch_date_close_approach": 1507628280000,
            "relative_velocity": {
                "kilometers_per_second": "23.7337995976",
                "kilometers_per_hour": "85441.6785514036",
                "miles_per_hour": "53090.1363198985"
            },
            "miss_distance": {
                "astronomical": "0.0034413812",
                "lunar": "1.3386972868",
                "kilometers": "514823.297378044",
                "miles": "319896.3631992472"
            },
            "orbiting_body": "Moon"
        }
    ],
    "orbital_data": {
        "orbit_id": "1",
        "orbit_determination_date": "2017-10-15 20:05:48",
        "first_observation_date": "2017-10-14",
        "last_observation_date": "2017-10-15",
        "data_arc_in_days": 1,
        "observations_used": 27,
        "orbit_uncertainty": "9",
        "minimum_orbit_intersection": ".00181061",
        "jupiter_tisserand_invariant": "3.162",
        "epoch_osculation": "2458041.5",
        "eccentricity": ".7454902951000383",
        "semi_major_axis": "2.278439182708354",
        "inclination": "5.571666456817697",
        "ascending_node_longitude": "15.87453982944957",
        "orbital_period": "1256.187848022175",
        "perihelion_distance": ".5798848840236133",
        "perihelion_argument": "272.1218876683513",
        "aphelion_distance": "3.976993481393096",
        "perihelion_time": "2457991.396312356063",
        "mean_anomaly": "14.35878207245555",
        "mean_motion": ".2865813425649738",
        "equinox": "J2000",
        "orbit_class": {
            "orbit_class_type": "APO",
            "orbit_class_description": "Near-Earth asteroid orbits which cross the Earth’s orbit similar to that of 1862 Apollo",
            "orbit_class_range": "a (semi-major axis) > 1.0 AU; q (perihelion) < 1.017 AU"
        }
    },
    "is_sentry_object": false
}